[{"OBJECT_NAME":"STARLINK-3505","OBJECT_ID":"2022-016AN","EPOCH":"2026-03-09T23:12:12.822048","MEAN_MOTION":15.0883057,"ECCENTRICITY":0.00011272,"INCLINATION":53.218,"RA_OF_ASC_NODE":307.8876,"ARG_OF_PERICENTER":80.6377,"MEAN_ANOMALY":279.4742,"EPHEMERIS_TYPE":0,"CLASSIFICATION_TYPE":"U","NORAD_CAT_ID":51750,"ELEMENT_SET_NO":999,"REV_AT_EPOCH":22374,"BSTAR":3.6530284e-5,"MEAN_MOTION_DOT":2.93e-6,"MEAN_MOTION_DDOT":0},{"OBJECT_NAME":"RAAF M1","OBJECT_ID":"2018-099X","EPOCH":"2026-03-09T15:51:10.230048","MEAN_MOTION":15.07065376,"ECCENTRICITY":0.00134971,"INCLINATION":97.4534,"RA_OF_ASC_NODE":114.8325,"ARG_OF_PERICENTER":21.6261,"MEAN_ANOMALY":338.5534,"EPHEMERIS_TYPE":0,"CLASSIFICATION_TYPE":"U","NORAD_CAT_ID":43779,"ELEMENT_SET_NO":999,"REV_AT_EPOCH":39714,"BSTAR":0.00026511092,"MEAN_MOTION_DOT":3.923e-5,"MEAN_MOTION_DDOT":0}]
